[{"OBJECT_NAME":"STARLINK-33702","OBJECT_ID":"2025-076Y","EPOCH":"2026-03-09T00:55:42.904128","MEAN_MOTION":15.27600182,"ECCENTRICITY":0.00016871,"INCLINATION":43.0039,"RA_OF_ASC_NODE":325.1251,"ARG_OF_PERICENTER":264.3983,"MEAN_ANOMALY":95.6676,"EPHEMERIS_TYPE":0,"CLASSIFICATION_TYPE":"U","NORAD_CAT_ID":63591,"ELEMENT_SET_NO":999,"REV_AT_EPOCH":5173,"BSTAR":0.0016649746,"MEAN_MOTION_DOT":0.00045868,"MEAN_MOTION_DDOT":0},{"OBJECT_NAME":"GEOSCAN 2 (RS92S2)","OBJECT_ID":"2025-155Q","EPOCH":"2026-03-09T23:01:48.939744","MEAN_MOTION":15.28709337,"ECCENTRICITY":0.00085277,"INCLINATION":97.4463,"RA_OF_ASC_NODE":37.5259,"ARG_OF_PERICENTER":140.9505,"MEAN_ANOMALY":219.2352,"EPHEMERIS_TYPE":0,"CLASSIFICATION_TYPE":"U","NORAD_CAT_ID":64890,"ELEMENT_SET_NO":999,"REV_AT_EPOCH":6561,"BSTAR":0.00051551761,"MEAN_MOTION_DOT":0.00014341,"MEAN_MOTION_DDOT":0}]
